start=new Date('2023-06-17T00:00:00.000Z').valueOf();
sats=[{"MEAN_MOTION_DOT":"0.00000108","TLE_LINE2":"2 55958  69.9988 285.3705 0003464 272.9394  87.1405 15.69914821 14462","ARG_OF_PERICENTER":"272.9394","REV_AT_EPOCH":"1446","TIME_SYSTEM":"UTC","OBJECT_NAME":"STARLINK-5928","GP_ID":"234096970","REF_FRAME":"TEME","RCS_SIZE":"LARGE","FILE":"3934949","NORAD_CAT_ID":"55958","PERIAPSIS":"356.809","MEAN_ANOMALY":"87.1405","MEAN_ELEMENT_THEORY":"SGP4","ECCENTRICITY":"0.00034640","LAUNCH_DATE":"2023-03-17","APOAPSIS":"361.476","EPHEMERIS_TYPE":"0","EPOCH":"2023-06-16T17:00:32.362560","MEAN_MOTION":"15.69914821","OBJECT_TYPE":"PAYLOAD","INCLINATION":"69.9988","BSTAR":"0.00000266480000","PERIOD":"91.725","TLE_LINE1":"1 55958U 23037AW  23167.70870790  .00000108  00000-0  26648-5 0  9994","SEMIMAJOR_AXIS":"6737.278","ELEMENT_SET_NO":"999","CENTER_NAME":"EARTH","MEAN_MOTION_DDOT":"0.0000000000000","SITE":"AFWTR","DECAY_DATE":null,"OBJECT_ID":"2023-037AW","RA_OF_ASC_NODE":"285.3705","COUNTRY_CODE":"US","CLASSIFICATION_TYPE":"U"},{"RA_OF_ASC_NODE":"285.3715","OBJECT_ID":"2023-037AX","CLASSIFICATION_TYPE":"U","COUNTRY_CODE":"US","BSTAR":"0.00001768600000","PERIOD":"91.724","OBJECT_TYPE":"PAYLOAD","INCLINATION":"69.9985","MEAN_MOTION":"15.69926726","EPOCH":"2023-06-16T17:00:22.453344","EPHEMERIS_TYPE":"0","DECAY_DATE":null,"CENTER_NAME":"EARTH","ELEMENT_SET_NO":"999","MEAN_MOTION_DDOT":"0.0000000000000","SITE":"AFWTR","SEMIMAJOR_AXIS":"6737.244","TLE_LINE1":"1 55959U 23037AX  23167.70859321  .00001914  00000-0  17686-4 0  9999","NORAD_CAT_ID":"55959","FILE":"3934949","RCS_SIZE":"LARGE","REF_FRAME":"TEME","GP_ID":"234097220","APOAPSIS":"361.550","LAUNCH_DATE":"2023-03-17","MEAN_ELEMENT_THEORY":"SGP4","PERIAPSIS":"356.668","MEAN_ANOMALY":"90.7683","ECCENTRICITY":"0.00036230","TLE_LINE2":"2 55959  69.9985 285.3715 0003623 269.3098  90.7683 15.69926726 14464","MEAN_MOTION_DOT":"0.00001914","TIME_SYSTEM":"UTC","OBJECT_NAME":"STARLINK-5929","ARG_OF_PERICENTER":"269.3098","REV_AT_EPOCH":"1446"},{"TLE_LINE2":"2 55960  69.9983 285.3686 0003852 267.5963  92.4792 15.69928767 14463","MEAN_MOTION_DOT":"0.00001141","REV_AT_EPOCH":"1446","ARG_OF_PERICENTER":"267.5963","OBJECT_NAME":"STARLINK-5938","TIME_SYSTEM":"UTC","FILE":"3934949","RCS_SIZE":"LARGE","NORAD_CAT_ID":"55960","GP_ID":"234098468","REF_FRAME":"TEME","LAUNCH_DATE":"2023-03-17","APOAPSIS":"361.698","ECCENTRICITY":"0.00038520","PERIAPSIS":"356.508","MEAN_ELEMENT_THEORY":"SGP4","MEAN_ANOMALY":"92.4792","INCLINATION":"69.9983","OBJECT_TYPE":"PAYLOAD","PERIOD":"91.724","BSTAR":"0.00001125300000","EPOCH":"2023-06-16T16:59:18.645216","EPHEMERIS_TYPE":"0","MEAN_MOTION":"15.69928767","DECAY_DATE":null,"SEMIMAJOR_AXIS":"6737.238","TLE_LINE1":"1 55960U 23037AY  23167.70785469  .00001141  00000-0  11253-4 0  9998","SITE":"AFWTR","MEAN_MOTION_DDOT":"0.0000000000000","ELEMENT_SET_NO":"999","CENTER_NAME":"EARTH","RA_OF_ASC_NODE":"285.3686","OBJECT_ID":"2023-037AY","COUNTRY_CODE":"US","CLASSIFICATION_TYPE":"U"},{"RA_OF_ASC_NODE":"285.3692","OBJECT_ID":"2023-037AZ","CLASSIFICATION_TYPE":"U","COUNTRY_CODE":"US","BSTAR":"0.00000662940000","PERIOD":"91.724","OBJECT_TYPE":"PAYLOAD","INCLINATION":"69.9989","MEAN_MOTION":"15.69921817","EPHEMERIS_TYPE":"0","EPOCH":"2023-06-16T16:59:46.488480","DECAY_DATE":null,"ELEMENT_SET_NO":"999","CENTER_NAME":"EARTH","SITE":"AFWTR","MEAN_MOTION_DDOT":"0.0000000000000","SEMIMAJOR_AXIS":"6737.258","TLE_LINE1":"1 55961U 23037AZ  23167.70817695  .00000584  00000-0  66294-5 0  9992","FILE":"3934949","NORAD_CAT_ID":"55961","RCS_SIZE":"LARGE","GP_ID":"234098708","REF_FRAME":"TEME","APOAPSIS":"361.344","LAUNCH_DATE":"2023-03-17","MEAN_ELEMENT_THEORY":"SGP4","PERIAPSIS":"356.901","MEAN_ANOMALY":"84.8358","ECCENTRICITY":"0.00032970","TLE_LINE2":"2 55961  69.9989 285.3692 0003297 275.2461  84.8358 15.69921817 14461","MEAN_MOTION_DOT":"0.00000584","TIME_SYSTEM":"UTC","OBJECT_NAME":"STARLINK-5933","ARG_OF_PERICENTER":"275.2461","REV_AT_EPOCH":"1446"},{"ECCENTRICITY":"0.00039480","PERIAPSIS":"356.450","MEAN_ANOMALY":"79.9799","MEAN_ELEMENT_THEORY":"SGP4","LAUNCH_DATE":"2023-03-17","APOAPSIS":"361.770","REF_FRAME":"TEME","GP_ID":"234097470","RCS_SIZE":"LARGE","FILE":"3934949","NORAD_CAT_ID":"55962","REV_AT_EPOCH":"1447","ARG_OF_PERICENTER":"280.0951","OBJECT_NAME":"STARLINK-5906","TIME_SYSTEM":"UTC","MEAN_MOTION_DOT":"0.00000931","TLE_LINE2":"2 55962  69.9985 285.1891 0003948 280.0951  79.9799 15.69926227 14473","COUNTRY_CODE":"US","CLASSIFICATION_TYPE":"U","OBJECT_ID":"2023-037BA","RA_OF_ASC_NODE":"285.1891","SEMIMAJOR_AXIS":"6737.245","TLE_LINE1":"1 55962U 23037BA  23167.77210098  .00000931  00000-0  95088-5 0  9993","MEAN_MOTION_DDOT":"0.0000000000000","SITE":"AFWTR","ELEMENT_SET_NO":"999","CENTER_NAME":"EARTH","DECAY_DATE":null,"EPOCH":"2023-06-16T18:31:49.524672","EPHEMERIS_TYPE":"0","MEAN_MOTION":"15.69926227","INCLINATION":"69.9985","OBJECT_TYPE":"PAYLOAD","PERIOD":"91.724","BSTAR":"0.00000950880000"},{"MEAN_ELEMENT_THEORY":"SGP4","PERIAPSIS":"357.406","MEAN_ANOMALY":"88.4521","ECCENTRICITY":"0.00025900","LAUNCH_DATE":"2023-03-17","APOAPSIS":"360.896","REF_FRAME":"TEME","GP_ID":"234097720","RCS_SIZE":"LARGE","FILE":"3934949","NORAD_CAT_ID":"55963","ARG_OF_PERICENTER":"271.6378","REV_AT_EPOCH":"1447","TIME_SYSTEM":"UTC","OBJECT_NAME":"STARLINK-5924","MEAN_MOTION_DOT":"-0.00000748","TLE_LINE2":"2 55963  70.0002 285.1918 0002590 271.6378  88.4521 15.69911888 14473","COUNTRY_CODE":"US","CLASSIFICATION_TYPE":"U","OBJECT_ID":"2023-037BB","RA_OF_ASC_NODE":"285.1918","TLE_LINE1":"1 55963U 23037BB  23167.77221620 -.00000748  00000-0 -44593-5 0  9990","SEMIMAJOR_AXIS":"6737.286","ELEMENT_SET_NO":"999","CENTER_NAME":"EARTH","SITE":"AFWTR","MEAN_MOTION_DDOT":"0.0000000000000","DECAY_DATE":null,"EPOCH":"2023-06-16T18:31:59.479680","EPHEMERIS_TYPE":"0","MEAN_MOTION":"15.69911888","OBJECT_TYPE":"PAYLOAD","INCLINATION":"70.0002","BSTAR":"-0.00000445930000","PERIOD":"91.725"},{"MEAN_MOTION":"15.69926191","EPOCH":"2023-06-16T17:01:08.076864","EPHEMERIS_TYPE":"0","BSTAR":"0.00000825670000","PERIOD":"91.724","OBJECT_TYPE":"PAYLOAD","INCLINATION":"69.9979","CENTER_NAME":"EARTH","ELEMENT_SET_NO":"999","SITE":"AFWTR","MEAN_MOTION_DDOT":"0.0000000000000","TLE_LINE1":"1 55964U 23037BC  23167.70912126  .00000780  00000-0  82567-5 0  9999","SEMIMAJOR_AXIS":"6737.245","DECAY_DATE":null,"OBJECT_ID":"2023-037BC","RA_OF_ASC_NODE":"285.3722","CLASSIFICATION_TYPE":"U","COUNTRY_CODE":"US","MEAN_MOTION_DOT":"0.00000780","TLE_LINE2":"2 55964  69.9979 285.3722 0003605 267.2835  92.7948 15.69926191 14469","TIME_SYSTEM":"UTC","OBJECT_NAME":"STARLINK-5895","ARG_OF_PERICENTER":"267.2835","REV_AT_EPOCH":"1446","GP_ID":"234097969","REF_FRAME":"TEME","NORAD_CAT_ID":"55964","FILE":"3934949","RCS_SIZE":"LARGE","MEAN_ELEMENT_THEORY":"SGP4","PERIAPSIS":"356.681","MEAN_ANOMALY":"92.7948","ECCENTRICITY":"0.00036050","APOAPSIS":"361.539","LAUNCH_DATE":"2023-03-17"},{"GP_ID":"234098209","REF_FRAME":"TEME","RCS_SIZE":"LARGE","FILE":"3934949","NORAD_CAT_ID":"55965","PERIAPSIS":"356.860","MEAN_ANOMALY":"74.5846","MEAN_ELEMENT_THEORY":"SGP4","ECCENTRICITY":"0.00033030","APOAPSIS":"361.310","LAUNCH_DATE":"2023-03-17","MEAN_MOTION_DOT":"0.00000961","TLE_LINE2":"2 55965  70.0013 285.3682 0003303 285.4985  74.5846 15.69934924 14468","TIME_SYSTEM":"UTC","OBJECT_NAME":"STARLINK-5894","ARG_OF_PERICENTER":"285.4985","REV_AT_EPOCH":"1446","OBJECT_ID":"2023-037BD","RA_OF_ASC_NODE":"285.3682","CLASSIFICATION_TYPE":"U","COUNTRY_CODE":"US","MEAN_MOTION":"15.69934924","EPOCH":"2023-06-16T16:59:27.908160","EPHEMERIS_TYPE":"0","BSTAR":"0.00000975290000","PERIOD":"91.724","OBJECT_TYPE":"PAYLOAD","INCLINATION":"70.0013","ELEMENT_SET_NO":"999","CENTER_NAME":"EARTH","MEAN_MOTION_DDOT":"0.0000000000000","SITE":"AFWTR","TLE_LINE1":"1 55965U 23037BD  23167.70796190  .00000961  00000-0  97529-5 0  9996","SEMIMAJOR_AXIS":"6737.220","DECAY_DATE":null},{"ECCENTRICITY":"0.00015200","MEAN_ELEMENT_THEORY":"SGP4","PERIAPSIS":"552.007","MEAN_ANOMALY":"94.0424","APOAPSIS":"554.114","LAUNCH_DATE":"2023-03-24","GP_ID":"234065829","REF_FRAME":"TEME","FILE":"3934686","NORAD_CAT_ID":"55986","RCS_SIZE":"LARGE","OBJECT_NAME":"STARLINK-5905","TIME_SYSTEM":"UTC","REV_AT_EPOCH":"1371","ARG_OF_PERICENTER":"266.0245","MEAN_MOTION_DOT":"0.00001385","TLE_LINE2":"2 55986  43.0029  75.3940 0001520 266.0245  94.0424 15.04494125 13714","CLASSIFICATION_TYPE":"U","COUNTRY_CODE":"US","OBJECT_ID":"2023-042A","RA_OF_ASC_NODE":"75.3940","SITE":"AFETR","MEAN_MOTION_DDOT":"0.0000000000000","ELEMENT_SET_NO":"999","CENTER_NAME":"EARTH","TLE_LINE1":"1 55986U 23042A   23167.45643412  .00001385  00000-0  11186-3 0  9999","SEMIMAJOR_AXIS":"6931.196","DECAY_DATE":null,"MEAN_MOTION":"15.04494125","EPHEMERIS_TYPE":"0","EPOCH":"2023-06-16T10:57:15.907968","PERIOD":"95.713","BSTAR":"0.00011186000000","INCLINATION":"43.0029","OBJECT_TYPE":"PAYLOAD"},{"RA_OF_ASC_NODE":"73.4231","OBJECT_ID":"2023-042B","CLASSIFICATION_TYPE":"U","COUNTRY_CODE":"US","BSTAR":"0.00025949000000","PERIOD":"95.713","OBJECT_TYPE":"PAYLOAD","INCLINATION":"43.0022","MEAN_MOTION":"15.04495312","EPOCH":"2023-06-16T18:24:22.403808","EPHEMERIS_TYPE":"0","DECAY_DATE":null,"ELEMENT_SET_NO":"999","CENTER_NAME":"EARTH","SITE":"AFETR","MEAN_MOTION_DDOT":"0.0000000000000","TLE_LINE1":"1 55987U 23042B   23167.76692597  .00003488  00000-0  25949-3 0  9990","SEMIMAJOR_AXIS":"6931.192","FILE":"3934949","RCS_SIZE":"LARGE","NORAD_CAT_ID":"55987","REF_FRAME":"TEME","GP_ID":"234097722","APOAPSIS":"554.274","LAUNCH_DATE":"2023-03-24","PERIAPSIS":"551.841","MEAN_ANOMALY":"85.8745","MEAN_ELEMENT_THEORY":"SGP4","ECCENTRICITY":"0.00017550","TLE_LINE2":"2 55987  43.0022  73.4231 0001755 274.1898  85.8745 15.04495312 12941","MEAN_MOTION_DOT":"0.00003488","TIME_SYSTEM":"UTC","OBJECT_NAME":"STARLINK-5915","ARG_OF_PERICENTER":"274.1898","REV_AT_EPOCH":"1294"}];
